GLOBALSTAR M024         
1 25883U 99043A   25224.49887572 -.00000078  00000+0 -47501-3 0  9992
2 25883  51.9984 253.5666 0001533 196.1276 336.0611 11.10163955121119
GLOBALSTAR M027         
1 25884U 99043B   25224.61381419 -.00000081  00000+0 -67358-3 0  9992
2 25884  52.0246 332.8876 0021954  83.5114 276.8177 11.04371769147478
GLOBALSTAR M054         
1 25885U 99043C   25224.39591343 -.00000177  00000+0 -27039-2 0  9994
2 25885  52.0137  91.2374 0004718 275.1888 255.7312 11.39222086125459
GLOBALSTAR M053         
1 25886U 99043D   25224.79139720 -.00000067  00000+0  42054-4 0  9999
2 25886  51.9999  40.5238 0003354 162.9348 209.9101 11.27666263125834
GLOBALSTAR M058         
1 25907U 99049A   25224.51887426 -.00000068  00000+0  21452-3 0  9991
2 25907  51.9966 318.7574 0002125  32.8576 327.2391 11.93200903548267
GLOBALSTAR M050         
1 25908U 99049B   25224.57730562  .00000027  00000+0  12998-2 0  9994
2 25908  52.0014 322.0636 0009691 142.8148 230.8812 12.07455819155000
GLOBALSTAR M033         
1 25909U 99049C   25224.62178900 -.00000022  00000+0  66880-3 0  9999
2 25909  51.9889 189.8719 0013955  18.8084 341.3276 12.20295689542632
GLOBALSTAR M055         
1 25910U 99049D   25224.59800809 -.00000084  00000+0  85138-4 0  9993
2 25910  51.9994 197.9406 0006930 250.7303 109.2799 12.29430958175227
